2024-007B               
1 58754U 24007B   24010.53631118  .00000206  00000+0  00000+0 0  9993
2 58754  29.0164 197.8641 0114211 356.4296  38.4683 15.14025265   142
